NORAD_CAT_ID,OBJECT_NAME,OBJECT_TYPE,EPOCH,MEAN_MOTION,ECCENTRICITY,INCLINATION,RA_OF_ASC_NODE,ARG_OF_PERICENTER,MEAN_ANOMALY,BSTAR,MEAN_MOTION_DOT,MEAN_MOTION_DDOT,TLE_LINE0,TLE_LINE1,TLE_LINE2,SEMIMAJOR_AXIS,PERIOD,APOGEE,PERIGEE,DECAYED
56814.0,STARLINK-6059,PAYLOAD,2024-06-04 17:25:52,14.98332914,0.0003429,69.9982,165.4683,268.5097,91.567,1.6311e-05,1.02e-06,0.0,0 STARLINK-6059,1 56814U 23078AZ  24156.72630634  .00000102  00000-0  16311-4 0  9992,2 56814  69.9982 165.4683 0003429 268.5097  91.5670 14.98332914 56370,6950.184,96.107,574.432,569.666,0.0
56814.0,STARLINK-6059,PAYLOAD,2024-06-05 11:03:21,14.98333604,0.0003427,69.9982,163.6167,268.6995,91.3771,2.2183e-05,1.72e-06,0.0,0 STARLINK-6059,1 56814U 23078AZ  24157.46066424  .00000172  00000-0  22183-4 0  9995,2 56814  69.9982 163.6167 0003427 268.6995  91.3771 14.98333604 56741,6950.182,96.107,574.429,569.665,0.0
56814.0,STARLINK-6059,PAYLOAD,2024-06-05 17:27:53,14.98331553,0.0003423,69.9983,162.9432,269.3209,90.7558,2.6184e-06,-6.2e-07,0.0,0 STARLINK-6059,1 56814U 23078AZ  24157.72770565 -.00000062  00000-0  26184-5 0  9997,2 56814  69.9983 162.9432 0003423 269.3209  90.7558 14.98331553 56524,6950.188,96.107,574.432,569.674,0.0
56814.0,STARLINK-6059,PAYLOAD,2024-06-06 04:40:50,14.98326669,0.0003377,69.9984,161.765,270.5125,89.5647,-1.8774e-05,-3.17e-06,0.0,0 STARLINK-6059,1 56814U 23078AZ  24158.19502970 -.00000317  00000-0 -18774-4 0  9991,2 56814  69.9984 161.7650 0003377 270.5125  89.5647 14.98326669 56856,6950.203,96.107,574.415,569.721,0.0
56814.0,STARLINK-6059,PAYLOAD,2024-06-06 09:29:14,14.98327234,0.0003365,69.9985,161.2603,269.4801,90.5972,-1.249e-05,-2.42e-06,0.0,0 STARLINK-6059,1 56814U 23078AZ  24158.39530940 -.00000242  00000-0 -12490-4 0  9997,2 56814  69.9985 161.2603 0003365 269.4801  90.5972 14.98327234 56622,6950.201,96.107,574.405,569.728,0.0
56814.0,STARLINK-6059,PAYLOAD,2024-06-07 09:31:15,14.98331028,0.0003306,69.9988,158.7356,268.1414,91.9366,3.5397e-05,3.29e-06,0.0,0 STARLINK-6059,1 56814U 23078AZ  24159.39670600  .00000329  00000-0  35397-4 0  9991,2 56814  69.9988 158.7356 0003306 268.1414  91.9366 14.98331028 57036,6950.19,96.107,574.352,569.757,0.0
56814.0,STARLINK-6059,PAYLOAD,2024-06-07 17:31:55,14.98331264,0.0003385,69.9987,157.8938,269.1632,90.914,3.9677e-05,3.8e-06,0.0,0 STARLINK-6059,1 56814U 23078AZ  24159.73050549  .00000380  00000-0  39677-4 0  9995,2 56814  69.9987 157.8938 0003385 269.1632  90.9140 14.98331264 56828,6950.189,96.107,574.407,569.701,0.0
56814.0,STARLINK-6059,PAYLOAD,2024-06-08 09:33:16,14.98331737,0.0003388,69.9985,156.2101,268.0288,92.0483,8.7419e-05,9.5e-06,0.0,0 STARLINK-6059,1 56814U 23078AZ  24160.39810389  .00000950  00000-0  87419-4 0  9995,2 56814  69.9985 156.2101 0003388 268.0288  92.0483 14.98331737 57187,6950.188,96.107,574.407,569.698,0.0
56814.0,STARLINK-6059,PAYLOAD,2024-06-08 17:33:56,14.98329722,0.0003354,69.9987,155.3683,268.0002,92.0773,2.703e-05,2.29e-06,0.0,0 STARLINK-6059,1 56814U 23078AZ  24160.73190654  .00000229  00000-0  27030-4 0  9991,2 56814  69.9987 155.3683 0003354 268.0002  92.0773 14.98329722 56970,6950.194,96.107,574.39,569.728,0.0
56814.0,STARLINK-6059,PAYLOAD,2024-06-09 09:35:17,14.98330219,0.0003327,69.9988,153.6855,268.6541,91.4237,2.7739e-05,2.38e-06,0.0,0 STARLINK-6059,1 56814U 23078AZ  24161.39950661  .00000238  00000-0  27739-4 0  9992,2 56814  69.9988 153.6855 0003327 268.6541  91.4237 14.98330219 57339,6950.192,96.107,574.37,569.745,0.0
56814.0,STARLINK-6059,PAYLOAD,2024-06-10 09:37:18,14.98332126,0.000326,69.9988,151.1608,269.0424,91.0362,3.2901e-05,3e-06,0.0,0 STARLINK-6059,1 56814U 23078AZ  24162.40090475  .00000300  00000-0  32901-4 0  9990,2 56814  69.9988 151.1608 0003260 269.0424  91.0362 14.98332126 57489,6950.186,96.107,574.317,569.786,0.0
56814.0,STARLINK-6059,PAYLOAD,2024-06-10 16:01:50,14.983309,0.0003245,69.9989,150.4875,269.2035,90.8753,2.9616e-05,2.6e-06,0.0,0 STARLINK-6059,1 56814U 23078AZ  24162.66794542  .00000260  00000-0  29616-4 0  9998,2 56814  69.9989 150.4875 0003245 269.2035  90.8753 14.98330900 57266,6950.19,96.107,574.31,569.8,0.0
56814.0,STARLINK-6059,PAYLOAD,2024-06-11 08:03:10,14.98332365,0.0003225,69.9987,148.8044,268.3141,91.7649,6.727e-05,7.1e-06,0.0,0 STARLINK-6059,1 56814U 23078AZ  24163.33554315  .00000710  00000-0  67270-4 0  9993,2 56814  69.9987 148.8044 0003225 268.3141  91.7649 14.98332365 57361,6950.186,96.107,574.292,569.809,0.0
56814.0,STARLINK-6059,PAYLOAD,2024-06-12 04:52:55,14.98329791,0.0003146,69.9988,146.6165,267.9067,92.1732,1.4695e-05,8.2e-07,0.0,0 STARLINK-6059,1 56814U 23078AZ  24164.20342573  .00000082  00000-0  14695-4 0  9996,2 56814  69.9988 146.6165 0003146 267.9067  92.1732 14.98329791 57756,6950.194,96.107,574.245,569.872,0.0
56814.0,STARLINK-6059,PAYLOAD,2024-06-12 06:29:03,14.9833046,0.0003135,69.9988,146.4481,268.2935,91.7865,2.2296e-05,1.73e-06,0.0,0 STARLINK-6059,1 56814U 23078AZ  24164.27018512  .00000173  00000-0  22296-4 0  9993,2 56814  69.9988 146.4481 0003135 268.2935  91.7865 14.98330460 57501,6950.191,96.107,574.235,569.878,0.0
56814.0,STARLINK-6059,PAYLOAD,2024-06-12 16:05:52,14.98329812,0.0003147,69.9988,145.4381,269.2052,90.8747,1.2389e-05,5.5e-07,0.0,0 STARLINK-6059,1 56814U 23078AZ  24164.67074542  .00000055  00000-0  12389-4 0  9993,2 56814  69.9988 145.4381 0003147 269.2052  90.8747 14.98329812 57567,6950.193,96.107,574.246,569.871,0.0
56814.0,STARLINK-6059,PAYLOAD,2024-06-13 04:54:57,14.98329029,0.0003115,69.9988,144.0919,269.2338,90.8464,-8.1159e-06,-1.9e-06,0.0,0 STARLINK-6059,1 56814U 23078AZ  24165.20482671 -.00000190  00000-0 -81159-5 0  9993,2 56814  69.9988 144.0919 0003115 269.2338  90.8464 14.98329029 57905,6950.196,96.107,574.226,569.896,0.0
56814.0,STARLINK-6059,PAYLOAD,2024-06-13 08:07:13,14.98330784,0.0003102,69.9989,143.7553,269.2948,90.7856,1.1874e-05,4.9e-07,0.0,0 STARLINK-6059,1 56814U 23078AZ  24165.33834499  .00000049  00000-0  11874-4 0  9993,2 56814  69.9989 143.7553 0003102 269.2948  90.7856 14.98330784 57666,6950.19,96.107,574.211,569.9,0.0
56814.0,STARLINK-6059,PAYLOAD,2024-06-14 08:09:13,14.98331165,0.0003125,69.9989,141.2304,269.5854,90.4947,4.0002e-05,3.84e-06,0.0,0 STARLINK-6059,1 56814U 23078AZ  24166.33974379  .00000384  00000-0  40002-4 0  9993,2 56814  69.9989 141.2304 0003125 269.5854  90.4947 14.98331165 57816,6950.189,96.107,574.226,569.882,0.0
56814.0,STARLINK-6059,PAYLOAD,2024-06-14 22:34:26,14.98330823,0.0003083,69.9991,139.7148,269.8035,90.277,5.1045e-05,5.16e-06,0.0,0 STARLINK-6059,1 56814U 23078AZ  24166.94058335  .00000516  00000-0  51045-4 0  9991,2 56814  69.9991 139.7148 0003083 269.8035  90.2770 14.98330823 57906,6950.19,96.107,574.198,569.913,0.0
56814.0,STARLINK-6059,PAYLOAD,2024-06-15 08:11:14,14.98334042,0.0003069,69.999,138.7049,269.7613,90.3195,6.9469e-05,7.36e-06,0.0,0 STARLINK-6059,1 56814U 23078AZ  24167.34114046  .00000736  00000-0  69469-4 0  9991,2 56814  69.9990 138.7049 0003069 269.7613  90.3195 14.98334042 57964,6950.18,96.107,574.178,569.912,0.0
56814.0,STARLINK-6059,PAYLOAD,2024-06-15 22:36:27,14.98330024,0.0003011,69.9991,137.19,269.8174,90.264,1.4957e-05,8.5e-07,0.0,0 STARLINK-6059,1 56814U 23078AZ  24167.94198365  .00000085  00000-0  14957-4 0  9992,2 56814  69.9991 137.1900 0003011 269.8174  90.2640 14.98330024 58055,6950.193,96.107,574.151,569.965,0.0
56814.0,STARLINK-6059,PAYLOAD,2024-06-16 08:13:15,14.98332638,0.0003019,69.999,136.1802,269.9928,90.0885,4.1759e-05,4.05e-06,0.0,0 STARLINK-6059,1 56814U 23078AZ  24168.34254101  .00000405  00000-0  41759-4 0  9994,2 56814  69.9990 136.1802 0003019 269.9928  90.0885 14.98332638 58119,6950.185,96.107,574.148,569.951,0.0
56814.0,STARLINK-6059,PAYLOAD,2024-06-16 22:38:28,14.98329754,0.0002933,69.9991,134.6653,270.8924,89.1899,-2.4707e-05,-3.88e-06,0.0,0 STARLINK-6059,1 56814U 23078AZ  24168.94338453 -.00000388  00000-0 -24707-4 0  9999,2 56814  69.9991 134.6653 0002933 270.8924  89.1899 14.98329754 58207,6950.194,96.107,574.097,570.02,0.0
56814.0,STARLINK-6059,PAYLOAD,2024-06-17 22:40:29,14.9832879,0.0002891,69.9991,132.1411,267.9653,92.1175,1.3149e-05,6.4e-07,0.0,0 STARLINK-6059,1 56814U 23078AZ  24169.94478420  .00000064  00000-0  13149-4 0  9996,2 56814  69.9991 132.1411 0002891 267.9653  92.1175 14.98328790 58357,6950.197,96.107,574.071,570.052,0.0
56814.0,STARLINK-6059,PAYLOAD,2024-06-18 06:41:14,14.98276766,0.0002726,69.9992,131.2997,266.7499,93.3348,-0.00055019,-6.642e-05,0.0,0 STARLINK-6059,1 56814U 23078AZ  24170.27863512 -.00006642  00000-0 -55019-3 0  9995,2 56814  69.9992 131.2997 0002726 266.7499  93.3348 14.98276766 58663,6950.358,96.11,574.117,570.328,0.0
56814.0,STARLINK-6059,PAYLOAD,2024-06-18 14:41:51,14.9831638,0.0003061,69.9993,130.4579,267.0809,93.0,-9.125e-05,-1.181e-05,0.0,0 STARLINK-6059,1 56814U 23078AZ  24170.61240253 -.00001181  00000-0 -91250-4 0  9995,2 56814  69.9993 130.4579 0003061 267.0809  93.0000 14.98316380 58459,6950.235,96.108,574.227,569.973,0.0
56814.0,STARLINK-6059,PAYLOAD,2024-06-18 21:06:23,14.98317312,0.0003567,69.9993,129.7842,265.7848,94.2904,-4.2626e-05,-6.01e-06,0.0,0 STARLINK-6059,1 56814U 23078AZ  24170.87944088 -.00000601  00000-0 -42626-4 0  9999,2 56814  69.9993 129.7842 0003567 265.7848  94.2904 14.98317312 58757,6950.232,96.108,574.576,569.618,0.0
56814.0,STARLINK-6059,PAYLOAD,2024-06-19 05:07:03,14.98332296,0.0002812,69.9995,128.9426,265.1334,94.9504,9.9048e-05,1.089e-05,0.0,0 STARLINK-6059,1 56814U 23078AZ  24171.21322962  .00001089  00000-0  99048-4 0  9998,2 56814  69.9995 128.9426 0002812 265.1334  94.9504 14.98332296 58801,6950.186,96.107,574.005,570.096,0.0
56814.0,STARLINK-6059,PAYLOAD,2024-06-19 06:43:11,14.983326,0.0002753,69.9996,128.7744,264.5291,95.5554,0.00010303,1.137e-05,0.0,0 STARLINK-6059,1 56814U 23078AZ  24171.27998940  .00001137  00000-0  10303-3 0  9999,2 56814  69.9996 128.7744 0002753 264.5291  95.5554 14.98332600 58555,6950.185,96.107,573.963,570.136,0.0
